{
  "type": "FeatureCollection",
  "features": [
    {
      "type": "Feature",
      "properties": {
        "norad_id": 31307,
        "name": "GALAXY 17 (G-17)",
        "group": "intelsat",
        "lat": -2.5025320309430463,
        "lon": -3.53448875281488,
        "alt_km": 35792.79039590806,
        "timestamp": "2025-12-17T23:38:06.530357+00:00",
        "meta_object_name": "GALAXY 17 (G-17)",
        "meta_object_id": "2007-016B",
        "meta_epoch": "2025-12-17T12:55:17.368608",
        "meta_mean_motion": 1.00271938,
        "meta_eccentricity": 0.00055172,
        "meta_inclination": 2.5117,
        "meta_ra_of_asc_node": 82.2321,
        "meta_arg_of_pericenter": 168.2005,
        "meta_mean_anomaly": 304.83,
        "meta_ephemeris_type": 0,
        "meta_classification_type": "U",
        "meta_norad_cat_id": 31307,
        "meta_element_set_no": 999,
        "meta_rev_at_epoch": 6798,
        "meta_bstar": 0,
        "meta_mean_motion_dot": -1.84e-06,
        "meta_mean_motion_ddot": 0,
        "tle_line1": "1 31307U 07016B   25351.53839547 -.00000184  00000+0  00000+0 0  9990",
        "tle_line2": "2 31307   2.5117  82.2321 0005517 168.2005 304.8300  1.00271938 67989"
      },
      "geometry": {
        "type": "Point",
        "coordinates": [
          -3.53448875281488,
          -2.5025320309430463
        ]
      }
    },
    {
      "type": "Feature",
      "properties": {
        "norad_id": 31862,
        "name": "DIRECTV 10",
        "group": "intelsat",
        "lat": 0.0014232161676866197,
        "lon": -21.43446169617285,
        "alt_km": 35787.7423461331,
        "timestamp": "2025-12-17T23:38:06.530368+00:00",
        "meta_object_name": "DIRECTV 10",
        "meta_object_id": "2007-032A",
        "meta_epoch": "2025-12-17T12:02:07.657728",
        "meta_mean_motion": 1.00269431,
        "meta_eccentricity": 3.618e-05,
        "meta_inclination": 0.0158,
        "meta_ra_of_asc_node": 172.9029,
        "meta_arg_of_pericenter": 34.5248,
        "meta_mean_anomaly": 316.679,
        "meta_ephemeris_type": 0,
        "meta_classification_type": "U",
        "meta_norad_cat_id": 31862,
        "meta_element_set_no": 999,
        "meta_rev_at_epoch": 4377,
        "meta_bstar": 0,
        "meta_mean_motion_dot": -7.8e-07,
        "meta_mean_motion_ddot": 0,
        "tle_line1": "1 31862U 07032A   25351.50147752 -.00000078  00000+0  00000+0 0  9993",
        "tle_line2": "2 31862   0.0158 172.9029 0000361  34.5248 316.6790  1.00269431 43771"
      },
      "geometry": {
        "type": "Point",
        "coordinates": [
          -21.43446169617285,
          0.0014232161676866197
        ]
      }
    },
    {
      "type": "Feature",
      "properties": {
        "norad_id": 32253,
        "name": "INTELSAT 11 (IS-11)",
        "group": "intelsat",
        "lat": -1.2385341559153977,
        "lon": -75.997120384482,
        "alt_km": 36101.90171844389,
        "timestamp": "2025-12-17T23:38:06.530380+00:00",
        "meta_object_name": "INTELSAT 11 (IS-11)",
        "meta_object_id": "2007-044B",
        "meta_epoch": "2025-12-17T12:22:10.021728",
        "meta_mean_motion": 0.99051063,
        "meta_eccentricity": 0.00085996,
        "meta_inclination": 3.0921,
        "meta_ra_of_asc_node": 80.9241,
        "meta_arg_of_pericenter": 167.743,
        "meta_mean_anomaly": 227.9301,
        "meta_ephemeris_type": 0,
        "meta_classification_type": "U",
        "meta_norad_cat_id": 32253,
        "meta_element_set_no": 999,
        "meta_rev_at_epoch": 6665,
        "meta_bstar": 0,
        "meta_mean_motion_dot": 1.6e-07,
        "meta_mean_motion_ddot": 0,
        "tle_line1": "1 32253U 07044B   25351.51539377  .00000016  00000+0  00000+0 0  9991",
        "tle_line2": "2 32253   3.0921  80.9241 0008599 167.7430 227.9301  0.99051063 66655"
      },
      "geometry": {
        "type": "Point",
        "coordinates": [
          -75.997120384482,
          -1.2385341559153977
        ]
      }
    },
    {
      "type": "Feature",
      "properties": {
        "norad_id": 32388,
        "name": "HORIZONS-2",
        "group": "intelsat",
        "lat": -2.0555070666879,
        "lon": 7.6490769263577265,
        "alt_km": 35787.20775967756,
        "timestamp": "2025-12-17T23:38:06.530391+00:00",
        "meta_object_name": "HORIZONS-2",
        "meta_object_id": "2007-063B",
        "meta_epoch": "2025-12-17T12:58:32.058912",
        "meta_mean_motion": 1.00272838,
        "meta_eccentricity": 0.00045713,
        "meta_inclination": 2.1335,
        "meta_ra_of_asc_node": 82.912,
        "meta_arg_of_pericenter": 191.5368,
        "meta_mean_anomaly": 292.8131,
        "meta_ephemeris_type": 0,
        "meta_classification_type": "U",
        "meta_norad_cat_id": 32388,
        "meta_element_set_no": 999,
        "meta_rev_at_epoch": 6599,
        "meta_bstar": 0,
        "meta_mean_motion_dot": -2.3e-06,
        "meta_mean_motion_ddot": 0,
        "tle_line1": "1 32388U 07063B   25351.54064883 -.00000230  00000+0  00000+0 0  9998",
        "tle_line2": "2 32388   2.1335  82.9120 0004571 191.5368 292.8131  1.00272838 65998"
      },
      "geometry": {
        "type": "Point",
        "coordinates": [
          7.6490769263577265,
          -2.0555070666879
        ]
      }
    },
    {
      "type": "Feature",
      "properties": {
        "norad_id": 32729,
        "name": "DIRECTV 11",
        "group": "intelsat",
        "lat": 0.0043220963318917945,
        "lon": -17.816103051374874,
        "alt_km": 35789.07920965677,
        "timestamp": "2025-12-17T23:38:06.530403+00:00",
        "meta_object_name": "DIRECTV 11",
        "meta_object_id": "2008-013A",
        "meta_epoch": "2025-12-17T12:01:21.617760",
        "meta_mean_motion": 1.00270372,
        "meta_eccentricity": 6.175e-05,
        "meta_inclination": 0.0324,
        "meta_ra_of_asc_node": 204.9349,
        "meta_arg_of_pericenter": 317.5061,
        "meta_mean_anomaly": 5.0932,
        "meta_ephemeris_type": 0,
        "meta_classification_type": "U",
        "meta_norad_cat_id": 32729,
        "meta_element_set_no": 999,
        "meta_rev_at_epoch": 4377,
        "meta_bstar": 0,
        "meta_mean_motion_dot": -1.01e-06,
        "meta_mean_motion_ddot": 0,
        "tle_line1": "1 32729U 08013A   25351.50094465 -.00000101  00000+0  00000+0 0  9995",
        "tle_line2": "2 32729   0.0324 204.9349 0000617 317.5061   5.0932  1.00270372 43774"
      },
      "geometry": {
        "type": "Point",
        "coordinates": [
          -17.816103051374874,
          0.0043220963318917945
        ]
      }
    },
    {
      "type": "Feature",
      "properties": {
        "norad_id": 32951,
        "name": "GALAXY 18 (G-18)",
        "group": "intelsat",
        "lat": -0.0021412608304154554,
        "lon": -41.60519962595734,
        "alt_km": 35777.255448885815,
        "timestamp": "2025-12-17T23:38:06.530414+00:00",
        "meta_object_name": "GALAXY 18 (G-18)",
        "meta_object_id": "2008-024A",
        "meta_epoch": "2025-12-17T12:44:25.909152",
        "meta_mean_motion": 1.00272987,
        "meta_eccentricity": 0.00028458,
        "meta_inclination": 0.0048,
        "meta_ra_of_asc_node": 78.269,
        "meta_arg_of_pericenter": 194.822,
        "meta_mean_anomaly": 241.4236,
        "meta_ephemeris_type": 0,
        "meta_classification_type": "U",
        "meta_norad_cat_id": 32951,
        "meta_element_set_no": 999,
        "meta_rev_at_epoch": 4403,
        "meta_bstar": 0,
        "meta_mean_motion_dot": 5e-07,
        "meta_mean_motion_ddot": 0,
        "tle_line1": "1 32951U 08024A   25351.53085543  .00000050  00000+0  00000+0 0  9996",
        "tle_line2": "2 32951   0.0048  78.2690 0002845 194.8220 241.4236  1.00272987 44030"
      },
      "geometry": {
        "type": "Point",
        "coordinates": [
          -41.60519962595734,
          -0.0021412608304154554
        ]
      }
    },
    {
      "type": "Feature",
      "properties": {
        "norad_id": 33153,
        "name": "INTELSAT 25 (IS-25)",
        "group": "intelsat",
        "lat": -1.1863732234831792,
        "lon": 49.92530492893545,
        "alt_km": 35802.76920675653,
        "timestamp": "2025-12-17T23:38:06.530426+00:00",
        "meta_object_name": "INTELSAT 25 (IS-25)",
        "meta_object_id": "2008-034A",
        "meta_epoch": "2025-12-17T09:45:06.538752",
        "meta_mean_motion": 1.00270958,
        "meta_eccentricity": 0.00048131,
        "meta_inclination": 2.2392,
        "meta_ra_of_asc_node": 82.6002,
        "meta_arg_of_pericenter": 184.5096,
        "meta_mean_anomaly": 293.9529,
        "meta_ephemeris_type": 0,
        "meta_classification_type": "U",
        "meta_norad_cat_id": 33153,
        "meta_element_set_no": 999,
        "meta_rev_at_epoch": 6387,
        "meta_bstar": 0,
        "meta_mean_motion_dot": -2.01e-06,
        "meta_mean_motion_ddot": 0,
        "tle_line1": "1 33153U 08034A   25351.40632568 -.00000201  00000+0  00000+0 0  9992",
        "tle_line2": "2 33153   2.2392  82.6002 0004813 184.5096 293.9529  1.00270958 63877"
      },
      "geometry": {
        "type": "Point",
        "coordinates": [
          49.92530492893545,
          -1.1863732234831792
        ]
      }
    }
  ]
}